start=new Date('2023-05-31T00:00:00.000Z').valueOf();
sats=[{"MEAN_ELEMENT_THEORY":"SGP4","CLASSIFICATION_TYPE":"U","SITE":"AFETR","BSTAR":"0.00069457000000","RCS_SIZE":"LARGE","LAUNCH_DATE":"2021-04-29","ECCENTRICITY":"0.00007480","PERIOD":"95.592","DECAY_DATE":null,"GP_ID":"232852280","TLE_LINE2":"2 48331  53.0539 333.0071 0000748  87.8195 272.2879 15.06406534115222","RA_OF_ASC_NODE":"333.0071","ELEMENT_SET_NO":"999","SEMIMAJOR_AXIS":"6925.329","MEAN_ANOMALY":"272.2879","REF_FRAME":"TEME","PERIAPSIS":"546.676","COUNTRY_CODE":"US","FILE":"3921192","OBJECT_ID":"2021-036BH","MEAN_MOTION_DDOT":"0.0000000000000","CENTER_NAME":"EARTH","MEAN_MOTION_DOT":"0.00010081","EPOCH":"2023-05-30T19:56:11.532192","OBJECT_NAME":"STARLINK-2514","TLE_LINE1":"1 48331U 21036BH  23150.83068903  .00010081  00000-0  69457-3 0  9993","NORAD_CAT_ID":"48331","APOAPSIS":"547.712","REV_AT_EPOCH":"11522","EPHEMERIS_TYPE":"0","ARG_OF_PERICENTER":"87.8195","TIME_SYSTEM":"UTC","OBJECT_TYPE":"PAYLOAD","MEAN_MOTION":"15.06406534","INCLINATION":"53.0539"},{"CENTER_NAME":"EARTH","MEAN_MOTION_DOT":"0.00012258","COUNTRY_CODE":"US","FILE":"3921192","OBJECT_ID":"2021-036BJ","MEAN_MOTION_DDOT":"0.0000000000000","NORAD_CAT_ID":"48332","EPOCH":"2023-05-30T16:43:45.147648","TLE_LINE1":"1 48332U 21036BJ  23150.69705032  .00012258  00000-0  84013-3 0  9992","OBJECT_NAME":"STARLINK-2511","REV_AT_EPOCH":"11520","EPHEMERIS_TYPE":"0","ARG_OF_PERICENTER":"88.2270","APOAPSIS":"547.577","OBJECT_TYPE":"PAYLOAD","MEAN_MOTION":"15.06411859","INCLINATION":"53.0536","TIME_SYSTEM":"UTC","CLASSIFICATION_TYPE":"U","SITE":"AFETR","BSTAR":"0.00084013000000","MEAN_ELEMENT_THEORY":"SGP4","ECCENTRICITY":"0.00005780","RCS_SIZE":"LARGE","LAUNCH_DATE":"2021-04-29","GP_ID":"232852531","TLE_LINE2":"2 48332  53.0536 333.6111 0000578  88.2270 271.8785 15.06411859115206","RA_OF_ASC_NODE":"333.6111","PERIOD":"95.591","DECAY_DATE":null,"SEMIMAJOR_AXIS":"6925.312","MEAN_ANOMALY":"271.8785","REF_FRAME":"TEME","PERIAPSIS":"546.777","ELEMENT_SET_NO":"999"},{"FILE":"3921192","COUNTRY_CODE":"US","MEAN_MOTION_DDOT":"0.0000000000000","OBJECT_ID":"2021-036BK","CENTER_NAME":"EARTH","MEAN_MOTION_DOT":"0.00011752","EPOCH":"2023-05-30T21:21:06.630912","OBJECT_NAME":"STARLINK-2518","TLE_LINE1":"1 48333U 21036BK  23150.88966008  .00011752  00000-0  80616-3 0  9999","NORAD_CAT_ID":"48333","APOAPSIS":"547.771","REV_AT_EPOCH":"11523","EPHEMERIS_TYPE":"0","ARG_OF_PERICENTER":"95.5104","TIME_SYSTEM":"UTC","MEAN_MOTION":"15.06417241","OBJECT_TYPE":"PAYLOAD","INCLINATION":"53.0535","MEAN_ELEMENT_THEORY":"SGP4","SITE":"AFETR","CLASSIFICATION_TYPE":"U","BSTAR":"0.00080616000000","LAUNCH_DATE":"2021-04-29","RCS_SIZE":"LARGE","ECCENTRICITY":"0.00008810","DECAY_DATE":null,"PERIOD":"95.591","GP_ID":"232853282","RA_OF_ASC_NODE":"332.7438","TLE_LINE2":"2 48333  53.0535 332.7438 0000881  95.5104 264.5986 15.06417241115238","ELEMENT_SET_NO":"999","MEAN_ANOMALY":"264.5986","SEMIMAJOR_AXIS":"6925.296","PERIAPSIS":"546.551","REF_FRAME":"TEME"},{"OBJECT_ID":"2021-036BL","MEAN_MOTION_DDOT":"0.0000000000000","COUNTRY_CODE":"US","FILE":"3921192","MEAN_MOTION_DOT":"0.00015636","CENTER_NAME":"EARTH","TLE_LINE1":"1 48334U 21036BL  23150.88597236  .00015636  00000-0  10657-2 0  9995","OBJECT_NAME":"STARLINK-2470","EPOCH":"2023-05-30T21:15:48.011904","NORAD_CAT_ID":"48334","APOAPSIS":"547.854","ARG_OF_PERICENTER":"113.4383","REV_AT_EPOCH":"11523","EPHEMERIS_TYPE":"0","TIME_SYSTEM":"UTC","INCLINATION":"53.0539","OBJECT_TYPE":"PAYLOAD","MEAN_MOTION":"15.06420480","MEAN_ELEMENT_THEORY":"SGP4","BSTAR":"0.00106570000000","CLASSIFICATION_TYPE":"U","SITE":"AFETR","RCS_SIZE":"LARGE","LAUNCH_DATE":"2021-04-29","ECCENTRICITY":"0.00010160","DECAY_DATE":null,"PERIOD":"95.591","TLE_LINE2":"2 48334  53.0539 332.7628 0001016 113.4383 246.6712 15.06420480115231","RA_OF_ASC_NODE":"332.7628","GP_ID":"232851530","ELEMENT_SET_NO":"999","PERIAPSIS":"546.447","REF_FRAME":"TEME","SEMIMAJOR_AXIS":"6925.286","MEAN_ANOMALY":"246.6712"},{"NORAD_CAT_ID":"48335","EPOCH":"2023-05-30T19:34:57.882144","TLE_LINE1":"1 48335U 21036BM  23150.81594771  .00016851  00000-0  11471-2 0  9995","OBJECT_NAME":"STARLINK-2441","CENTER_NAME":"EARTH","MEAN_MOTION_DOT":"0.00016851","FILE":"3921080","COUNTRY_CODE":"US","MEAN_MOTION_DDOT":"0.0000000000000","OBJECT_ID":"2021-036BM","MEAN_MOTION":"15.06411326","OBJECT_TYPE":"PAYLOAD","INCLINATION":"53.0547","TIME_SYSTEM":"UTC","REV_AT_EPOCH":"11581","EPHEMERIS_TYPE":"0","ARG_OF_PERICENTER":"73.8974","APOAPSIS":"547.897","ECCENTRICITY":"0.00010370","LAUNCH_DATE":"2021-04-29","RCS_SIZE":"LARGE","SITE":"AFETR","CLASSIFICATION_TYPE":"U","BSTAR":"0.00114710000000","MEAN_ELEMENT_THEORY":"SGP4","MEAN_ANOMALY":"286.2129","SEMIMAJOR_AXIS":"6925.314","REF_FRAME":"TEME","PERIAPSIS":"546.461","ELEMENT_SET_NO":"999","GP_ID":"232828580","RA_OF_ASC_NODE":"333.0743","TLE_LINE2":"2 48335  53.0547 333.0743 0001037  73.8974 286.2129 15.06411326115816","DECAY_DATE":null,"PERIOD":"95.591"},{"MEAN_ELEMENT_THEORY":"SGP4","BSTAR":"0.00040520000000","CLASSIFICATION_TYPE":"U","SITE":"AFETR","RCS_SIZE":"LARGE","LAUNCH_DATE":"2021-05-04","ECCENTRICITY":"0.00008470","DECAY_DATE":null,"PERIOD":"95.592","TLE_LINE2":"2 48353  53.0534 234.2414 0000847  99.1212 260.9873 15.06401362114175","RA_OF_ASC_NODE":"234.2414","GP_ID":"232852533","ELEMENT_SET_NO":"999","PERIAPSIS":"546.623","REF_FRAME":"TEME","SEMIMAJOR_AXIS":"6925.344","MEAN_ANOMALY":"260.9873","OBJECT_ID":"2021-038A","MEAN_MOTION_DDOT":"0.0000000000000","COUNTRY_CODE":"US","FILE":"3921192","MEAN_MOTION_DOT":"0.00005759","CENTER_NAME":"EARTH","OBJECT_NAME":"STARLINK-2613","TLE_LINE1":"1 48353U 21038A   23150.55608799  .00005759  00000-0  40520-3 0  9997","EPOCH":"2023-05-30T13:20:46.002336","NORAD_CAT_ID":"48353","APOAPSIS":"547.796","ARG_OF_PERICENTER":"99.1212","REV_AT_EPOCH":"11417","EPHEMERIS_TYPE":"0","TIME_SYSTEM":"UTC","INCLINATION":"53.0534","MEAN_MOTION":"15.06401362","OBJECT_TYPE":"PAYLOAD"},{"ARG_OF_PERICENTER":"103.5708","REV_AT_EPOCH":"11417","EPHEMERIS_TYPE":"0","APOAPSIS":"547.778","INCLINATION":"53.0534","MEAN_MOTION":"15.06408403","OBJECT_TYPE":"PAYLOAD","TIME_SYSTEM":"UTC","MEAN_MOTION_DOT":"0.00015766","CENTER_NAME":"EARTH","OBJECT_ID":"2021-038B","MEAN_MOTION_DDOT":"0.0000000000000","COUNTRY_CODE":"US","FILE":"3921192","NORAD_CAT_ID":"48354","OBJECT_NAME":"STARLINK-2674","TLE_LINE1":"1 48354U 21038B   23150.55240871  .00015766  00000-0  10747-2 0  9997","EPOCH":"2023-05-30T13:15:28.112544","TLE_LINE2":"2 48354  53.0534 234.2580 0000852 103.5708 256.5376 15.06408403114178","RA_OF_ASC_NODE":"234.2580","GP_ID":"232853284","DECAY_DATE":null,"PERIOD":"95.592","REF_FRAME":"TEME","PERIAPSIS":"546.598","SEMIMAJOR_AXIS":"6925.323","MEAN_ANOMALY":"256.5376","ELEMENT_SET_NO":"999","BSTAR":"0.00107470000000","CLASSIFICATION_TYPE":"U","SITE":"AFETR","MEAN_ELEMENT_THEORY":"SGP4","ECCENTRICITY":"0.00008520","RCS_SIZE":"LARGE","LAUNCH_DATE":"2021-05-04"},{"CLASSIFICATION_TYPE":"U","SITE":"AFETR","BSTAR":"0.00097721000000","MEAN_ELEMENT_THEORY":"SGP4","ECCENTRICITY":"0.00010600","RCS_SIZE":"LARGE","LAUNCH_DATE":"2021-05-04","GP_ID":"232851532","TLE_LINE2":"2 48355  53.0534 233.9763 0001060  82.6311 277.4799 15.06405477114187","RA_OF_ASC_NODE":"233.9763","PERIOD":"95.592","DECAY_DATE":null,"SEMIMAJOR_AXIS":"6925.332","MEAN_ANOMALY":"277.4799","PERIAPSIS":"546.463","REF_FRAME":"TEME","ELEMENT_SET_NO":"999","CENTER_NAME":"EARTH","MEAN_MOTION_DOT":"0.00014306","COUNTRY_CODE":"US","FILE":"3921192","OBJECT_ID":"2021-038C","MEAN_MOTION_DDOT":"0.0000000000000","NORAD_CAT_ID":"48355","EPOCH":"2023-05-30T14:45:42.244992","TLE_LINE1":"1 48355U 21038C   23150.61507228  .00014306  00000-0  97721-3 0  9994","OBJECT_NAME":"STARLINK-2635","EPHEMERIS_TYPE":"0","REV_AT_EPOCH":"11418","ARG_OF_PERICENTER":"82.6311","APOAPSIS":"547.931","MEAN_MOTION":"15.06405477","OBJECT_TYPE":"PAYLOAD","INCLINATION":"53.0534","TIME_SYSTEM":"UTC"},{"TLE_LINE2":"2 48356  53.0530 233.9942 0001148  84.9240 275.1880 15.06407275114180","RA_OF_ASC_NODE":"233.9942","GP_ID":"232851782","PERIOD":"95.592","DECAY_DATE":null,"REF_FRAME":"TEME","PERIAPSIS":"546.396","SEMIMAJOR_AXIS":"6925.326","MEAN_ANOMALY":"275.1880","ELEMENT_SET_NO":"999","BSTAR":"0.00108190000000","CLASSIFICATION_TYPE":"U","SITE":"AFETR","MEAN_ELEMENT_THEORY":"SGP4","ECCENTRICITY":"0.00011480","RCS_SIZE":"LARGE","LAUNCH_DATE":"2021-05-04","ARG_OF_PERICENTER":"84.9240","REV_AT_EPOCH":"11418","EPHEMERIS_TYPE":"0","APOAPSIS":"547.986","INCLINATION":"53.0530","OBJECT_TYPE":"PAYLOAD","MEAN_MOTION":"15.06407275","TIME_SYSTEM":"UTC","MEAN_MOTION_DOT":"0.00015873","CENTER_NAME":"EARTH","OBJECT_ID":"2021-038D","MEAN_MOTION_DDOT":"0.0000000000000","COUNTRY_CODE":"US","FILE":"3921192","NORAD_CAT_ID":"48356","TLE_LINE1":"1 48356U 21038D   23150.61138691  .00015873  00000-0  10819-2 0  9991","OBJECT_NAME":"STARLINK-2637","EPOCH":"2023-05-30T14:40:23.829024"},{"ELEMENT_SET_NO":"999","SEMIMAJOR_AXIS":"6925.332","MEAN_ANOMALY":"281.6082","REF_FRAME":"TEME","PERIAPSIS":"546.537","DECAY_DATE":null,"PERIOD":"95.592","GP_ID":"232853034","TLE_LINE2":"2 48357  53.0533 234.0220 0000953  78.5014 281.6082 15.06405485114183","RA_OF_ASC_NODE":"234.0220","RCS_SIZE":"LARGE","LAUNCH_DATE":"2021-05-04","ECCENTRICITY":"0.00009530","MEAN_ELEMENT_THEORY":"SGP4","CLASSIFICATION_TYPE":"U","SITE":"AFETR","BSTAR":"0.00102260000000","TIME_SYSTEM":"UTC","MEAN_MOTION":"15.06405485","OBJECT_TYPE":"PAYLOAD","INCLINATION":"53.0533","APOAPSIS":"547.857","REV_AT_EPOCH":"11418","EPHEMERIS_TYPE":"0","ARG_OF_PERICENTER":"78.5014","EPOCH":"2023-05-30T14:39:02.395296","OBJECT_NAME":"STARLINK-2636","TLE_LINE1":"1 48357U 21038E   23150.61044439  .00014985  00000-0  10226-2 0  9993","NORAD_CAT_ID":"48357","COUNTRY_CODE":"US","FILE":"3921192","OBJECT_ID":"2021-038E","MEAN_MOTION_DDOT":"0.0000000000000","CENTER_NAME":"EARTH","MEAN_MOTION_DOT":"0.00014985"}];
